NORAD_CAT_ID,OBJECT_NAME,OBJECT_TYPE,EPOCH,MEAN_MOTION,ECCENTRICITY,INCLINATION,RA_OF_ASC_NODE,ARG_OF_PERICENTER,MEAN_ANOMALY,BSTAR,MEAN_MOTION_DOT,MEAN_MOTION_DDOT,TLE_LINE0,TLE_LINE1,TLE_LINE2,SEMIMAJOR_AXIS,PERIOD,APOGEE,PERIGEE,DECAYED
52839.0,STARLINK-4048,PAYLOAD,2022-11-21 05:30:36,15.08840475,0.0002504,53.2192,41.1667,28.2533,331.8595,-1.8766e-06,-3.18e-06,0.0,0 STARLINK-4048,1 52839U 22062K   22325.22958718 -.00000318  00000-0 -18766-5 0  9992,2 52839  53.2192  41.1667 0002504  28.2533 331.8595 15.08840475 24440,6917.879,95.438,541.476,538.012,0.0
52839.0,STARLINK-4048,PAYLOAD,2022-11-21 10:16:46,15.08831957,0.0002457,53.2194,40.2742,28.6945,331.4182,-6.9173e-05,-1.389e-05,0.0,0 STARLINK-4048,1 52839U 22062K   22325.42831477 -.00001389  00000-0 -69173-4 0  9992,2 52839  53.2194  40.2742 0002457  28.6945 331.4182 15.08831957 24470,6917.905,95.438,541.47,538.07,0.0
52839.0,STARLINK-4048,PAYLOAD,2022-11-21 11:52:09,15.08829325,0.0002451,53.2193,39.9769,28.2445,331.8679,-7.5268e-05,-1.486e-05,0.0,0 STARLINK-4048,1 52839U 22062K   22325.49455667 -.00001486  00000-0 -75268-4 0  9992,2 52839  53.2193  39.9769 0002451  28.2445 331.8679 15.08829325 23995,6917.913000000001,95.438,541.474,538.082,0.0
52839.0,STARLINK-4048,PAYLOAD,2022-11-21 15:02:56,15.08821493,0.0002369,53.2194,39.3821,27.4741,332.6376,8.7164e-06,-1.5e-06,0.0,0 STARLINK-4048,1 52839U 22062K   22325.62703895 -.00000150  00000-0  87164-5 0  9991,2 52839  53.2194  39.3821 0002369  27.4741 332.6376 15.08821493 24012,6917.937,95.439,541.441,538.163,0.0
52839.0,STARLINK-4048,PAYLOAD,2022-11-22 11:42:56,15.08842637,0.0002486,53.2188,35.517,25.7666,334.345,1.6069e-05,-3.3e-07,0.0,0 STARLINK-4048,1 52839U 22062K   22326.48814838 -.00000033  00000-0  16069-4 0  9991,2 52839  53.2188  35.5170 0002486  25.7666 334.3450 15.08842637 24630,6917.871999999999,95.437,541.457,538.018,0.0
52839.0,STARLINK-4048,PAYLOAD,2022-11-22 13:18:19,15.0884307,0.0002487,53.2179,35.2191,23.5441,336.5665,1.0670999999999997e-05,-1.19e-06,0.0,0 STARLINK-4048,1 52839U 22062K   22326.55438817 -.00000119  00000-0  10671-4 0  9996,2 52839  53.2179  35.2191 0002487  23.5441 336.5665 15.08843070 24159,6917.871,95.437,541.456,538.016,0.0
52839.0,STARLINK-4048,PAYLOAD,2022-11-23 11:33:43,15.08833914,0.0002539,53.2172,31.0558,24.5596,335.5517,0.00010176,1.331e-05,0.0,0 STARLINK-4048,1 52839U 22062K   22327.48175062  .00001331  00000-0  10176-3 0  9994,2 52839  53.2172  31.0558 0002539  24.5596 335.5517 15.08833914 24299,6917.899,95.438,541.52,538.008,0.0
52839.0,STARLINK-4048,PAYLOAD,2022-11-23 13:09:06,15.08835119,0.000256,53.2174,30.7583,24.7537,335.3577,0.00010777,1.427e-05,0.0,0 STARLINK-4048,1 52839U 22062K   22327.54798988  .00001427  00000-0  10777-3 0  9992,2 52839  53.2174  30.7583 0002560  24.7537 335.3577 15.08835119 24794,6917.895,95.438,541.531,537.989,0.0
52839.0,STARLINK-4048,PAYLOAD,2022-11-24 09:49:07,15.08838033,0.0002658,53.2176,26.8923,27.1138,332.9993,-1.8252e-05,-5.79e-06,0.0,0 STARLINK-4048,1 52839U 22062K   22328.40911536 -.00000579  00000-0 -18252-4 0  9990,2 52839  53.2176  26.8923 0002658  27.1138 332.9993 15.08838033 24436,6917.886,95.438,541.59,537.913,0.0
52839.0,STARLINK-4048,PAYLOAD,2022-11-24 20:56:48,15.08846318,0.000273,53.2178,24.8107,27.6827,332.431,3.5582e-05,2.78e-06,0.0,0 STARLINK-4048,1 52839U 22062K   22328.87278757  .00000278  00000-0  35582-4 0  9991,2 52839  53.2178  24.8107 0002730  27.6827 332.4310 15.08846318 24995,6917.861,95.437,541.615,537.8380000000002,0.0
52839.0,STARLINK-4048,PAYLOAD,2022-11-25 12:50:40,15.08837023,0.0002764,53.218,21.8362,29.5017,330.61300000000006,-9.7092e-06,-4.43e-06,0.0,0 STARLINK-4048,1 52839U 22062K   22329.53519511 -.00000443  00000-0 -97092-5 0  9992,2 52839  53.2180  21.8362 0002764  29.5017 330.6130 15.08837023 25092,6917.889,95.438,541.6669999999998,537.842,0.0
52839.0,STARLINK-4048,PAYLOAD,2022-11-25 20:47:35,15.08845214,0.0002716,53.2178,20.35,28.3448,331.7692,7.089600000000001e-05,8.400000000000001e-06,0.0,0 STARLINK-4048,1 52839U 22062K   22329.86638626  .00000840  00000-0  70896-4 0  9998,2 52839  53.2178  20.3500 0002716  28.3448 331.7692 15.08845214 24656,6917.864000000001,95.437,541.6080000000002,537.851,0.0
52839.0,STARLINK-4048,PAYLOAD,2022-11-26 09:30:41,15.0883829,0.0002602,53.2174,17.9694,27.5774,332.5355,5.3732e-05,5.67e-06,0.0,0 STARLINK-4048,1 52839U 22062K   22330.39631010  .00000567  00000-0  53732-4 0  9994,2 52839  53.2174  17.9694 0002602  27.5774 332.5355 15.08838290 25220,6917.886,95.438,541.5509999999998,537.951,0.0
52839.0,STARLINK-4048,PAYLOAD,2022-11-26 20:38:23,15.08834267,0.0002697,53.2172,15.8901,28.7396,331.3745,3.1e-05,2.05e-06,0.0,0 STARLINK-4048,1 52839U 22062K   22330.85999414  .00000205  00000-0  31000-4 0  9993,2 52839  53.2172  15.8901 0002697  28.7396 331.3745 15.08834267 24806,6917.898,95.438,541.629,537.8969999999998,0.0
52839.0,STARLINK-4048,PAYLOAD,2022-11-27 10:56:51,15.08842484,0.0002427,53.2171,13.214,29.3215,330.7913,8.661799999999999e-06,-1.51e-06,0.0,0 STARLINK-4048,1 52839U 22062K   22331.45614825 -.00000151  00000-0  86618-5 0  9997,2 52839  53.2171  13.2140 0002427  29.3215 330.7913 15.08842484 25384,6917.873000000001,95.437,541.4169999999998,538.059,0.0
52839.0,STARLINK-4048,PAYLOAD,2022-11-27 20:29:10,15.0883536,0.0002768999999999,53.2164,11.4297,27.1814,332.9323,-4.2832e-05,-9.7e-06,0.0,0 STARLINK-4048,1 52839U 22062K   22331.85359537 -.00000970  00000-0 -42832-4 0  9996,2 52839  53.2164  11.4297 0002769  27.1814 332.9323 15.08835360 25440,6917.895,95.438,541.675,537.844,0.0
52839.0,STARLINK-4048,PAYLOAD,2022-11-28 09:12:14,15.08845839,0.000273,53.2169,9.0496,31.0294,329.0859,5.2722e-05,5.51e-06,0.0,0 STARLINK-4048,1 52839U 22062K   22332.38350505  .00000551  00000-0  52722-4 0  9993,2 52839  53.2169   9.0496 0002730  31.0294 329.0859 15.08845839 25525,6917.863,95.437,541.616,537.839,0.0
52839.0,STARLINK-4048,PAYLOAD,2022-11-29 02:41:30,15.08835041,0.0002718,53.2174,5.7795,29.8352,330.2795,-1.6737999999999998e-05,-5.55e-06,0.0,0 STARLINK-4048,1 52839U 22062K   22333.11215508 -.00000555  00000-0 -16738-4 0  9991,2 52839  53.2174   5.7795 0002718  29.8352 330.2795 15.08835041 25631,6917.896,95.438,541.641,537.88,0.0
52839.0,STARLINK-4048,PAYLOAD,2022-11-29 09:03:02,15.08845045,0.0002726,53.217,4.5898,30.9557,329.1595,2.4665e-05,1.04e-06,0.0,0 STARLINK-4048,1 52839U 22062K   22333.37710742  .00000104  00000-0  24665-4 0  9995,2 52839  53.2170   4.5898 0002726  30.9557 329.1595 15.08845045 25671,6917.865,95.437,541.616,537.844,0.0
52839.0,STARLINK-4048,PAYLOAD,2022-11-30 02:32:17,15.08832079,0.000259,53.2175,1.318,41.573,318.5459,-7.157600000000001e-05,-1.427e-05,0.0,0 STARLINK-4048,1 52839U 22062K   22334.10576138 -.00001427  00000-0 -71576-4 0  9990,2 52839  53.2175   1.3180 0002590  41.5730 318.5459 15.08832079 25781,6917.905,95.438,541.561,537.9780000000002,0.0
52839.0,STARLINK-4048,PAYLOAD,2022-11-30 08:53:50,15.08828028,0.0002525,53.2183,0.1288,40.3641,319.7538,-2.3541e-05,-6.63e-06,0.0,0 STARLINK-4048,1 52839U 22062K   22334.37072326 -.00000663  00000-0 -23541-4 0  9999,2 52839  53.2183   0.1288 0002525  40.3641 319.7538 15.08828028 25333,6917.917,95.438,541.529,538.035,0.0
52839.0,STARLINK-4048,PAYLOAD,2022-11-30 18:26:09,15.08832469,0.0002623,53.2187,358.3449,35.4035,324.7131,-4.9845e-05,-1.082e-05,0.0,0 STARLINK-4048,1 52839U 22062K   22334.76816342 -.00001082  00000-0 -49845-4 0  9997,2 52839  53.2187 358.3449 0002623  35.4035 324.7131 15.08832469 25390,6917.903,95.438,541.5830000000002,537.9540000000002,0.0
52839.0,STARLINK-4048,PAYLOAD,2022-12-01 10:20:00,15.08834429,0.0002657,53.218,355.371,33.1146,327.0012,-5.1024e-05,-1.1e-05,0.0,0 STARLINK-4048,1 52839U 22062K   22335.43056654 -.00001100  00000-0 -51024-4 0  9997,2 52839  53.2180 355.3710 0002657  33.1146 327.0012 15.08834429 25499,6917.897,95.438,541.601,537.924,0.0
52839.0,STARLINK-4048,PAYLOAD,2022-12-01 18:16:56,15.08835469,0.0002765,53.2177,353.8847,32.1255,327.9905,-7.4996e-06,-4.08e-06,0.0,0 STARLINK-4048,1 52839U 22062K   22335.76176595 -.00000408  00000-0 -74996-5 0  9994,2 52839  53.2177 353.8847 0002765  32.1255 327.9905 15.08835469 26035,6917.894,95.438,541.672,537.846,0.0
52839.0,STARLINK-4048,PAYLOAD,2022-12-02 02:13:51,15.08836642,0.0002863,53.2172,352.3973,26.2823,333.8314,0.00011085,1.476e-05,0.0,0 STARLINK-4048,1 52839U 22062K   22336.09296262  .00001476  00000-0  11085-3 0  9997,2 52839  53.2172 352.3973 0002863  26.2823 333.8314 15.08836642 25592,6917.891,95.438,541.736,537.775,0.0
52839.0,STARLINK-4048,PAYLOAD,2022-12-02 18:07:43,15.088403,0.0002878,53.2167,349.4242,26.2479,333.8659,8.1847e-05,1.014e-05,0.0,0 STARLINK-4048,1 52839U 22062K   22336.75536230  .00001014  00000-0  81847-4 0  9994,2 52839  53.2167 349.4242 0002878  26.2479 333.8659 15.08840300 25694,6917.879,95.438,541.735,537.754,0.0
52839.0,STARLINK-4048,PAYLOAD,2022-12-03 02:04:39,15.08833465,0.0002937,53.2175,347.9364,28.4711,331.6441,3.9248e-05,3.36e-06,0.0,0 STARLINK-4048,1 52839U 22062K   22337.08656883  .00000336  00000-0  39248-4 0  9992,2 52839  53.2175 347.9364 0002937  28.4711 331.6441 15.08833465 26230,6917.9,95.438,541.797,537.734,0.0
52839.0,STARLINK-4048,PAYLOAD,2022-12-03 10:01:35,15.08851336,0.000296,53.2172,346.4496,24.5446,335.5687,-0.00025463,-4.34e-05,0.0,0 STARLINK-4048,1 52839U 22062K   22337.41776976 -.00004340  00000-0 -25463-3 0  9999,2 52839  53.2172 346.4496 0002960  24.5446 335.5687 15.08851336 25797,6917.846,95.437,541.758,537.663,0.0
52839.0,STARLINK-4048,PAYLOAD,2022-12-04 01:55:26,15.08845874,0.0002913,53.2175,343.4761,27.8311,332.2836,4.7025e-05,4.6e-06,0.0,0 STARLINK-4048,1 52839U 22062K   22338.08016250  .00000460  00000-0  47025-4 0  9991,2 52839  53.2175 343.4761 0002913  27.8311 332.2836 15.08845874 26383,6917.861999999999,95.437,541.743,537.712,0.0
